QIANFAN-89              
1 63175U 25046S   25322.13913147  .00000121  00000+0  16855-3 0  9993
2 63175  88.9753 322.5864 0015991 190.4272 169.6550 13.50977809 44081
QIANFAN-90              
1 63176U 25046T   25322.09380701  .00000033  00000+0  32134-4 0  9994
2 63176  88.9753 322.5635 0013012 187.1797 172.9170 13.50974656 44098
QIANFAN-91              
1 66033U 25233A   25322.14768410  .00000628  00000+0  29901-3 0  9997
2 66033  88.9964  64.8690 0017460 110.7566 249.5496 14.18061128  4534
QIANFAN-92              
1 66034U 25233B   25321.93669623  .00000813  00000+0  38904-3 0  9999
2 66034  88.9934  64.9067 0018822 121.7399 238.5628 14.18051715  4503
QIANFAN-93              
1 66035U 25233C   25322.07253272  .00000389  00000+0  18033-3 0  9994
2 66035  88.9963  64.8754 0016661 112.9573 247.3376 14.18700240  4527
QIANFAN-94              
1 66036U 25233D   25322.14565132  .00000723  00000+0  34432-3 0  9997
2 66036  88.9965  64.8685 0016256 110.8362 249.4570 14.18256158  4530
QIANFAN-95              
1 66037U 25233E   25322.19563911  .00000906  00000+0  37180-3 0  9992
2 66037  88.9964  64.8568 0016321 114.2281 246.0620 14.26184022  4540
QIANFAN-96              
1 66038U 25233F   25321.86405473  .00000735  00000+0  35467-3 0  9990
2 66038  88.9898  64.9035 0016343 117.9399 242.3447 14.17570786  4497
