<?xml version="1.0" encoding="UTF-8"?>
<ndm xmlns:xsi="http://www.w3.org/2001/XMLSchema-instance" xsi:noNamespaceSchemaLocation="https://sanaregistry.org/r/ndmxml_unqualified/ndmxml-2.0.0-master-2.0.xsd">
<omm id="CCSDS_OMM_VERS" version="2.0">
<header><CREATION_DATE/><ORIGINATOR/></header><body><segment><metadata><OBJECT_NAME>QIANFAN-89</OBJECT_NAME><OBJECT_ID>2025-046S</OBJECT_ID><CENTER_NAME>EARTH</CENTER_NAME><REF_FRAME>TEME</REF_FRAME><TIME_SYSTEM>UTC</TIME_SYSTEM><MEAN_ELEMENT_THEORY>SGP4</MEAN_ELEMENT_THEORY></metadata><data><meanElements><EPOCH>2025-11-18T03:20:20.959008</EPOCH><MEAN_MOTION>13.50977809</MEAN_MOTION><ECCENTRICITY>.0015991</ECCENTRICITY><INCLINATION>88.9753</INCLINATION><RA_OF_ASC_NODE>322.5864</RA_OF_ASC_NODE><ARG_OF_PERICENTER>190.4272</ARG_OF_PERICENTER><MEAN_ANOMALY>169.6550</MEAN_ANOMALY></meanElements><tleParameters><EPHEMERIS_TYPE>0</EPHEMERIS_TYPE><CLASSIFICATION_TYPE>U</CLASSIFICATION_TYPE><NORAD_CAT_ID>63175</NORAD_CAT_ID><ELEMENT_SET_NO>999</ELEMENT_SET_NO><REV_AT_EPOCH>4408</REV_AT_EPOCH><BSTAR>.16855E-3</BSTAR><MEAN_MOTION_DOT>.121E-5</MEAN_MOTION_DOT><MEAN_MOTION_DDOT>0</MEAN_MOTION_DDOT></tleParameters></data></segment></body></omm>
<omm id="CCSDS_OMM_VERS" version="2.0">
<header><CREATION_DATE/><ORIGINATOR/></header><body><segment><metadata><OBJECT_NAME>QIANFAN-90</OBJECT_NAME><OBJECT_ID>2025-046T</OBJECT_ID><CENTER_NAME>EARTH</CENTER_NAME><REF_FRAME>TEME</REF_FRAME><TIME_SYSTEM>UTC</TIME_SYSTEM><MEAN_ELEMENT_THEORY>SGP4</MEAN_ELEMENT_THEORY></metadata><data><meanElements><EPOCH>2025-11-18T02:15:04.925664</EPOCH><MEAN_MOTION>13.50974656</MEAN_MOTION><ECCENTRICITY>.0013012</ECCENTRICITY><INCLINATION>88.9753</INCLINATION><RA_OF_ASC_NODE>322.5635</RA_OF_ASC_NODE><ARG_OF_PERICENTER>187.1797</ARG_OF_PERICENTER><MEAN_ANOMALY>172.9170</MEAN_ANOMALY></meanElements><tleParameters><EPHEMERIS_TYPE>0</EPHEMERIS_TYPE><CLASSIFICATION_TYPE>U</CLASSIFICATION_TYPE><NORAD_CAT_ID>63176</NORAD_CAT_ID><ELEMENT_SET_NO>999</ELEMENT_SET_NO><REV_AT_EPOCH>4409</REV_AT_EPOCH><BSTAR>.32134E-4</BSTAR><MEAN_MOTION_DOT>.33E-6</MEAN_MOTION_DOT><MEAN_MOTION_DDOT>0</MEAN_MOTION_DDOT></tleParameters></data></segment></body></omm>
<omm id="CCSDS_OMM_VERS" version="2.0">
<header><CREATION_DATE/><ORIGINATOR/></header><body><segment><metadata><OBJECT_NAME>QIANFAN-91</OBJECT_NAME><OBJECT_ID>2025-233A</OBJECT_ID><CENTER_NAME>EARTH</CENTER_NAME><REF_FRAME>TEME</REF_FRAME><TIME_SYSTEM>UTC</TIME_SYSTEM><MEAN_ELEMENT_THEORY>SGP4</MEAN_ELEMENT_THEORY></metadata><data><meanElements><EPOCH>2025-11-18T03:32:39.906240</EPOCH><MEAN_MOTION>14.18061128</MEAN_MOTION><ECCENTRICITY>.001746</ECCENTRICITY><INCLINATION>88.9964</INCLINATION><RA_OF_ASC_NODE>64.8690</RA_OF_ASC_NODE><ARG_OF_PERICENTER>110.7566</ARG_OF_PERICENTER><MEAN_ANOMALY>249.5496</MEAN_ANOMALY></meanElements><tleParameters><EPHEMERIS_TYPE>0</EPHEMERIS_TYPE><CLASSIFICATION_TYPE>U</CLASSIFICATION_TYPE><NORAD_CAT_ID>66033</NORAD_CAT_ID><ELEMENT_SET_NO>999</ELEMENT_SET_NO><REV_AT_EPOCH>453</REV_AT_EPOCH><BSTAR>.29901E-3</BSTAR><MEAN_MOTION_DOT>.628E-5</MEAN_MOTION_DOT><MEAN_MOTION_DDOT>0</MEAN_MOTION_DDOT></tleParameters></data></segment></body></omm>
<omm id="CCSDS_OMM_VERS" version="2.0">
<header><CREATION_DATE/><ORIGINATOR/></header><body><segment><metadata><OBJECT_NAME>QIANFAN-92</OBJECT_NAME><OBJECT_ID>2025-233B</OBJECT_ID><CENTER_NAME>EARTH</CENTER_NAME><REF_FRAME>TEME</REF_FRAME><TIME_SYSTEM>UTC</TIME_SYSTEM><MEAN_ELEMENT_THEORY>SGP4</MEAN_ELEMENT_THEORY></metadata><data><meanElements><EPOCH>2025-11-17T22:28:50.554272</EPOCH><MEAN_MOTION>14.18051715</MEAN_MOTION><ECCENTRICITY>.0018822</ECCENTRICITY><INCLINATION>88.9934</INCLINATION><RA_OF_ASC_NODE>64.9067</RA_OF_ASC_NODE><ARG_OF_PERICENTER>121.7399</ARG_OF_PERICENTER><MEAN_ANOMALY>238.5628</MEAN_ANOMALY></meanElements><tleParameters><EPHEMERIS_TYPE>0</EPHEMERIS_TYPE><CLASSIFICATION_TYPE>U</CLASSIFICATION_TYPE><NORAD_CAT_ID>66034</NORAD_CAT_ID><ELEMENT_SET_NO>999</ELEMENT_SET_NO><REV_AT_EPOCH>450</REV_AT_EPOCH><BSTAR>.38904E-3</BSTAR><MEAN_MOTION_DOT>.813E-5</MEAN_MOTION_DOT><MEAN_MOTION_DDOT>0</MEAN_MOTION_DDOT></tleParameters></data></segment></body></omm>
<omm id="CCSDS_OMM_VERS" version="2.0">
<header><CREATION_DATE/><ORIGINATOR/></header><body><segment><metadata><OBJECT_NAME>QIANFAN-93</OBJECT_NAME><OBJECT_ID>2025-233C</OBJECT_ID><CENTER_NAME>EARTH</CENTER_NAME><REF_FRAME>TEME</REF_FRAME><TIME_SYSTEM>UTC</TIME_SYSTEM><MEAN_ELEMENT_THEORY>SGP4</MEAN_ELEMENT_THEORY></metadata><data><meanElements><EPOCH>2025-11-18T01:44:26.827008</EPOCH><MEAN_MOTION>14.18700240</MEAN_MOTION><ECCENTRICITY>.0016661</ECCENTRICITY><INCLINATION>88.9963</INCLINATION><RA_OF_ASC_NODE>64.8754</RA_OF_ASC_NODE><ARG_OF_PERICENTER>112.9573</ARG_OF_PERICENTER><MEAN_ANOMALY>247.3376</MEAN_ANOMALY></meanElements><tleParameters><EPHEMERIS_TYPE>0</EPHEMERIS_TYPE><CLASSIFICATION_TYPE>U</CLASSIFICATION_TYPE><NORAD_CAT_ID>66035</NORAD_CAT_ID><ELEMENT_SET_NO>999</ELEMENT_SET_NO><REV_AT_EPOCH>452</REV_AT_EPOCH><BSTAR>.18033E-3</BSTAR><MEAN_MOTION_DOT>.389E-5</MEAN_MOTION_DOT><MEAN_MOTION_DDOT>0</MEAN_MOTION_DDOT></tleParameters></data></segment></body></omm>
<omm id="CCSDS_OMM_VERS" version="2.0">
<header><CREATION_DATE/><ORIGINATOR/></header><body><segment><metadata><OBJECT_NAME>QIANFAN-94</OBJECT_NAME><OBJECT_ID>2025-233D</OBJECT_ID><CENTER_NAME>EARTH</CENTER_NAME><REF_FRAME>TEME</REF_FRAME><TIME_SYSTEM>UTC</TIME_SYSTEM><MEAN_ELEMENT_THEORY>SGP4</MEAN_ELEMENT_THEORY></metadata><data><meanElements><EPOCH>2025-11-18T03:29:44.274048</EPOCH><MEAN_MOTION>14.18256158</MEAN_MOTION><ECCENTRICITY>.0016256</ECCENTRICITY><INCLINATION>88.9965</INCLINATION><RA_OF_ASC_NODE>64.8685</RA_OF_ASC_NODE><ARG_OF_PERICENTER>110.8362</ARG_OF_PERICENTER><MEAN_ANOMALY>249.4570</MEAN_ANOMALY></meanElements><tleParameters><EPHEMERIS_TYPE>0</EPHEMERIS_TYPE><CLASSIFICATION_TYPE>U</CLASSIFICATION_TYPE><NORAD_CAT_ID>66036</NORAD_CAT_ID><ELEMENT_SET_NO>999</ELEMENT_SET_NO><REV_AT_EPOCH>453</REV_AT_EPOCH><BSTAR>.34432E-3</BSTAR><MEAN_MOTION_DOT>.723E-5</MEAN_MOTION_DOT><MEAN_MOTION_DDOT>0</MEAN_MOTION_DDOT></tleParameters></data></segment></body></omm>
<omm id="CCSDS_OMM_VERS" version="2.0">
<header><CREATION_DATE/><ORIGINATOR/></header><body><segment><metadata><OBJECT_NAME>QIANFAN-95</OBJECT_NAME><OBJECT_ID>2025-233E</OBJECT_ID><CENTER_NAME>EARTH</CENTER_NAME><REF_FRAME>TEME</REF_FRAME><TIME_SYSTEM>UTC</TIME_SYSTEM><MEAN_ELEMENT_THEORY>SGP4</MEAN_ELEMENT_THEORY></metadata><data><meanElements><EPOCH>2025-11-18T04:41:43.219104</EPOCH><MEAN_MOTION>14.26184022</MEAN_MOTION><ECCENTRICITY>.0016321</ECCENTRICITY><INCLINATION>88.9964</INCLINATION><RA_OF_ASC_NODE>64.8568</RA_OF_ASC_NODE><ARG_OF_PERICENTER>114.2281</ARG_OF_PERICENTER><MEAN_ANOMALY>246.0620</MEAN_ANOMALY></meanElements><tleParameters><EPHEMERIS_TYPE>0</EPHEMERIS_TYPE><CLASSIFICATION_TYPE>U</CLASSIFICATION_TYPE><NORAD_CAT_ID>66037</NORAD_CAT_ID><ELEMENT_SET_NO>999</ELEMENT_SET_NO><REV_AT_EPOCH>454</REV_AT_EPOCH><BSTAR>.3718E-3</BSTAR><MEAN_MOTION_DOT>.906E-5</MEAN_MOTION_DOT><MEAN_MOTION_DDOT>0</MEAN_MOTION_DDOT></tleParameters></data></segment></body></omm>
<omm id="CCSDS_OMM_VERS" version="2.0">
<header><CREATION_DATE/><ORIGINATOR/></header><body><segment><metadata><OBJECT_NAME>QIANFAN-96</OBJECT_NAME><OBJECT_ID>2025-233F</OBJECT_ID><CENTER_NAME>EARTH</CENTER_NAME><REF_FRAME>TEME</REF_FRAME><TIME_SYSTEM>UTC</TIME_SYSTEM><MEAN_ELEMENT_THEORY>SGP4</MEAN_ELEMENT_THEORY></metadata><data><meanElements><EPOCH>2025-11-17T20:44:14.328672</EPOCH><MEAN_MOTION>14.17570786</MEAN_MOTION><ECCENTRICITY>.0016343</ECCENTRICITY><INCLINATION>88.9898</INCLINATION><RA_OF_ASC_NODE>64.9035</RA_OF_ASC_NODE><ARG_OF_PERICENTER>117.9399</ARG_OF_PERICENTER><MEAN_ANOMALY>242.3447</MEAN_ANOMALY></meanElements><tleParameters><EPHEMERIS_TYPE>0</EPHEMERIS_TYPE><CLASSIFICATION_TYPE>U</CLASSIFICATION_TYPE><NORAD_CAT_ID>66038</NORAD_CAT_ID><ELEMENT_SET_NO>999</ELEMENT_SET_NO><REV_AT_EPOCH>449</REV_AT_EPOCH><BSTAR>.35467E-3</BSTAR><MEAN_MOTION_DOT>.735E-5</MEAN_MOTION_DOT><MEAN_MOTION_DDOT>0</MEAN_MOTION_DDOT></tleParameters></data></segment></body></omm>

</ndm>
